[{"OBJECT_NAME":"FORMOSAT-5","OBJECT_ID":"2017-049A","EPOCH":"2026-03-09T21:06:30.002688","MEAN_MOTION":14.50821744,"ECCENTRICITY":0.00116882,"INCLINATION":98.2311,"RA_OF_ASC_NODE":146.3833,"ARG_OF_PERICENTER":35.9482,"MEAN_ANOMALY":324.2497,"EPHEMERIS_TYPE":0,"CLASSIFICATION_TYPE":"U","NORAD_CAT_ID":42920,"ELEMENT_SET_NO":999,"REV_AT_EPOCH":45227,"BSTAR":8.2289571e-5,"MEAN_MOTION_DOT":2.81e-6,"MEAN_MOTION_DDOT":0},{"OBJECT_NAME":"COSMOS 1275 DEB","OBJECT_ID":"1981-053FX","EPOCH":"2026-03-09T21:35:39.007392","MEAN_MOTION":14.3957,"ECCENTRICITY":0.00467865,"INCLINATION":82.9932,"RA_OF_ASC_NODE":18.3942,"ARG_OF_PERICENTER":272.6311,"MEAN_ANOMALY":86.9526,"EPHEMERIS_TYPE":0,"CLASSIFICATION_TYPE":"U","NORAD_CAT_ID":13477,"ELEMENT_SET_NO":999,"REV_AT_EPOCH":23111,"BSTAR":0.0026391198,"MEAN_MOTION_DOT":8.364e-5,"MEAN_MOTION_DDOT":0}]
